{
  "type": "FeatureCollection",
  "features": [
    {
      "type": "Feature",
      "properties": {
        "norad_id": 36083,
        "name": "IRIDIUM 33 DEB",
        "group": "iridium-33-debris",
        "lat": -47.076963348857774,
        "lon": -142.42166240335362,
        "alt_km": 737.232703905428,
        "timestamp": "2025-12-13T22:39:30.096208+00:00",
        "meta_object_name": "IRIDIUM 33 DEB",
        "meta_object_id": "1997-051VQ",
        "meta_epoch": "2025-12-06T21:32:26.892672",
        "meta_mean_motion": 14.43175138,
        "meta_eccentricity": 0.00247889,
        "meta_inclination": 86.3442,
        "meta_ra_of_asc_node": 36.6683,
        "meta_arg_of_pericenter": 243.3344,
        "meta_mean_anomaly": 116.5319,
        "meta_ephemeris_type": 0,
        "meta_classification_type": "U",
        "meta_norad_cat_id": 36083,
        "meta_element_set_no": 999,
        "meta_rev_at_epoch": 85365,
        "meta_bstar": 0.00098432537,
        "meta_mean_motion_dot": 3.337e-05,
        "meta_mean_motion_ddot": 0,
        "tle_line1": "1 36083U 97051VQ  25340.89753348  .00003337  00000+0  98433-3 0  9998",
        "tle_line2": "2 36083  86.3442  36.6683 0024788 243.3344 116.5319 14.43175138853653"
      },
      "geometry": {
        "type": "Point",
        "coordinates": [
          -142.42166240335362,
          -47.076963348857774
        ]
      }
    },
    {
      "type": "Feature",
      "properties": {
        "norad_id": 36390,
        "name": "IRIDIUM 33 DEB",
        "group": "iridium-33-debris",
        "lat": 2.7112911983559225,
        "lon": 118.66510883751862,
        "alt_km": 632.1786239867288,
        "timestamp": "2025-12-13T22:39:30.096218+00:00",
        "meta_object_name": "IRIDIUM 33 DEB",
        "meta_object_id": "1997-051VU",
        "meta_epoch": "2025-12-10T04:13:18.491808",
        "meta_mean_motion": 14.73548967,
        "meta_eccentricity": 0.00303441,
        "meta_inclination": 86.2912,
        "meta_ra_of_asc_node": 300.5678,
        "meta_arg_of_pericenter": 170.4809,
        "meta_mean_anomaly": 189.6991,
        "meta_ephemeris_type": 0,
        "meta_classification_type": "U",
        "meta_norad_cat_id": 36390,
        "meta_element_set_no": 999,
        "meta_rev_at_epoch": 66224,
        "meta_bstar": 0.0016206136,
        "meta_mean_motion_dot": 0.00010646,
        "meta_mean_motion_ddot": 0,
        "tle_line1": "1 36390U 97051VU  25344.17590847  .00010646  00000+0  16206-2 0  9995",
        "tle_line2": "2 36390  86.2912 300.5678 0030344 170.4809 189.6991 14.73548967662240"
      },
      "geometry": {
        "type": "Point",
        "coordinates": [
          118.66510883751862,
          2.7112911983559225
        ]
      }
    },
    {
      "type": "Feature",
      "properties": {
        "norad_id": 36483,
        "name": "IRIDIUM 33 DEB",
        "group": "iridium-33-debris",
        "lat": 41.520627911394,
        "lon": 55.18736305522028,
        "alt_km": 734.5862346966742,
        "timestamp": "2025-12-13T22:39:30.096228+00:00",
        "meta_object_name": "IRIDIUM 33 DEB",
        "meta_object_id": "1997-051VZ",
        "meta_epoch": "2025-12-10T11:24:52.773984",
        "meta_mean_motion": 14.45797209,
        "meta_eccentricity": 0.00110254,
        "meta_inclination": 86.3794,
        "meta_ra_of_asc_node": 53.458,
        "meta_arg_of_pericenter": 132.1914,
        "meta_mean_anomaly": 228.0226,
        "meta_ephemeris_type": 0,
        "meta_classification_type": "U",
        "meta_norad_cat_id": 36483,
        "meta_element_set_no": 999,
        "meta_rev_at_epoch": 65113,
        "meta_bstar": 0.00078050397,
        "meta_mean_motion_dot": 2.789e-05,
        "meta_mean_motion_ddot": 0,
        "tle_line1": "1 36483U 97051VZ  25344.47561081  .00002789  00000+0  78050-3 0  9994",
        "tle_line2": "2 36483  86.3794  53.4580 0011025 132.1914 228.0226 14.45797209651134"
      },
      "geometry": {
        "type": "Point",
        "coordinates": [
          55.18736305522028,
          41.520627911394
        ]
      }
    },
    {
      "type": "Feature",
      "properties": {
        "norad_id": 36490,
        "name": "IRIDIUM 33 DEB",
        "group": "iridium-33-debris",
        "lat": 70.01373320185965,
        "lon": 19.984159140539585,
        "alt_km": 630.7408958725455,
        "timestamp": "2025-12-13T22:39:30.096238+00:00",
        "meta_object_name": "IRIDIUM 33 DEB",
        "meta_object_id": "1997-051WG",
        "meta_epoch": "2025-12-13T01:11:31.805088",
        "meta_mean_motion": 14.76204649,
        "meta_eccentricity": 0.00055088,
        "meta_inclination": 86.3658,
        "meta_ra_of_asc_node": 10.3233,
        "meta_arg_of_pericenter": 82.9348,
        "meta_mean_anomaly": 277.2498,
        "meta_ephemeris_type": 0,
        "meta_classification_type": "U",
        "meta_norad_cat_id": 36490,
        "meta_element_set_no": 999,
        "meta_rev_at_epoch": 86489,
        "meta_bstar": 0.0021967802,
        "meta_mean_motion_dot": 0.00015238,
        "meta_mean_motion_ddot": 0,
        "tle_line1": "1 36490U 97051WG  25347.04967367  .00015238  00000+0  21968-2 0  9993",
        "tle_line2": "2 36490  86.3658  10.3233 0005508  82.9348 277.2498 14.76204649864891"
      },
      "geometry": {
        "type": "Point",
        "coordinates": [
          19.984159140539585,
          70.01373320185965
        ]
      }
    },
    {
      "type": "Feature",
      "properties": {
        "norad_id": 36493,
        "name": "IRIDIUM 33 DEB",
        "group": "iridium-33-debris",
        "lat": -54.42267618648593,
        "lon": 6.035154855063509,
        "alt_km": 679.3196772623396,
        "timestamp": "2025-12-13T22:39:30.096248+00:00",
        "meta_object_name": "IRIDIUM 33 DEB",
        "meta_object_id": "1997-051WK",
        "meta_epoch": "2025-12-13T08:09:20.242368",
        "meta_mean_motion": 14.65247958,
        "meta_eccentricity": 0.00101315,
        "meta_inclination": 86.3571,
        "meta_ra_of_asc_node": 11.4132,
        "meta_arg_of_pericenter": 3.2575,
        "meta_mean_anomaly": 356.8702,
        "meta_ephemeris_type": 0,
        "meta_classification_type": "U",
        "meta_norad_cat_id": 36493,
        "meta_element_set_no": 999,
        "meta_rev_at_epoch": 74527,
        "meta_bstar": 0.0021348411,
        "meta_mean_motion_dot": 0.00011538,
        "meta_mean_motion_ddot": 0,
        "tle_line1": "1 36493U 97051WK  25347.33981762  .00011538  00000+0  21348-2 0  9994",
        "tle_line2": "2 36493  86.3571  11.4132 0010131   3.2575 356.8702 14.65247958745274"
      },
      "geometry": {
        "type": "Point",
        "coordinates": [
          6.035154855063509,
          -54.42267618648593
        ]
      }
    },
    {
      "type": "Feature",
      "properties": {
        "norad_id": 37548,
        "name": "IRIDIUM 33 DEB",
        "group": "iridium-33-debris",
        "lat": 71.70653656473705,
        "lon": 53.9729994409239,
        "alt_km": 721.4012245333643,
        "timestamp": "2025-12-13T22:39:30.096259+00:00",
        "meta_object_name": "IRIDIUM 33 DEB",
        "meta_object_id": "1997-051XH",
        "meta_epoch": "2025-12-10T21:30:59.995872",
        "meta_mean_motion": 14.51276893,
        "meta_eccentricity": 0.0025313,
        "meta_inclination": 86.3513,
        "meta_ra_of_asc_node": 44.17,
        "meta_arg_of_pericenter": 194.8863,
        "meta_mean_anomaly": 165.16,
        "meta_ephemeris_type": 0,
        "meta_classification_type": "U",
        "meta_norad_cat_id": 37548,
        "meta_element_set_no": 999,
        "meta_rev_at_epoch": 65505,
        "meta_bstar": 0.0015557,
        "meta_mean_motion_dot": 6.233e-05,
        "meta_mean_motion_ddot": 0,
        "tle_line1": "1 37548U 97051XH  25344.89652773  .00006233  00000+0  15557-2 0  9992",
        "tle_line2": "2 37548  86.3513  44.1700 0025313 194.8863 165.1600 14.51276893655050"
      },
      "geometry": {
        "type": "Point",
        "coordinates": [
          53.9729994409239,
          71.70653656473705
        ]
      }
    },
    {
      "type": "Feature",
      "properties": {
        "norad_id": 37550,
        "name": "IRIDIUM 33 DEB",
        "group": "iridium-33-debris",
        "lat": 2.6618647413692913,
        "lon": -156.82728464134806,
        "alt_km": 671.3664337718246,
        "timestamp": "2025-12-13T22:39:30.096269+00:00",
        "meta_object_name": "IRIDIUM 33 DEB",
        "meta_object_id": "1997-051XK",
        "meta_epoch": "2025-12-11T20:44:57.108768",
        "meta_mean_motion": 14.67192319,
        "meta_eccentricity": 0.0005511,
        "meta_inclination": 86.3777,
        "meta_ra_of_asc_node": 24.2628,
        "meta_arg_of_pericenter": 113.4096,
        "meta_mean_anomaly": 246.7698,
        "meta_ephemeris_type": 0,
        "meta_classification_type": "U",
        "meta_norad_cat_id": 37550,
        "meta_element_set_no": 999,
        "meta_rev_at_epoch": 86320,
        "meta_bstar": 0.0020084,
        "meta_mean_motion_dot": 0.00011332,
        "meta_mean_motion_ddot": 0,
        "tle_line1": "1 37550U 97051XK  25345.86454987  .00011332  00000+0  20084-2 0  9997",
        "tle_line2": "2 37550  86.3777  24.2628 0005511 113.4096 246.7698 14.67192319863204"
      },
      "geometry": {
        "type": "Point",
        "coordinates": [
          -156.82728464134806,
          2.6618647413692913
        ]
      }
    }
  ]
}